DLR-TUBSAT              
1 25757U 99029B   26189.92493167  .00000047  00000+0  23559-4 0  9990
2 25757  98.6706 186.1452 0013007 285.5031  74.4727 14.52432344436406
DMSP 5D-3 F16 (USA 172) 
1 28054U 03048A   26189.96189999 -.00000039  00000+0  30539-5 0  9997
2 28054  98.9886 213.9337 0008203  86.5171  27.8401 14.14484945172565
DMSP 5D-3 F17 (USA 191) 
1 29522U 06050A   26189.94875004 -.00000022  00000+0  10975-4 0  9994
2 29522  98.7383 196.0738 0010101   0.9288 359.1902 14.14995892 15506
DEIMOS-1                
1 35681U 09041A   26189.95867622  .00000491  00000+0  79612-4 0  9990
2 35681  97.7431 346.2455 0002637 101.5397 258.6109 14.75261158910099
DUBAISAT-1              
1 35682U 09041B   26189.86284761  .00000598  00000+0  96115-4 0  9993
2 35682  98.0077 322.8864 0010417   9.1871 350.9527 14.75160120908295
DMSP 5D-3 F18 (USA 210) 
1 35951U 09057A   26189.92151763  .00000214  00000+0  13386-3 0  9994
2 35951  98.9050 170.6447 0010848 183.2334 176.8771 14.14908712862662
DEIMOS-2                
1 40013U 14033D   26189.95392943  .00001170  00000+0  11546-3 0  9997
2 40013  97.5806  63.6759 0001114  81.7370 278.3977 14.93790337640979
CYGFM05                 
1 41884U 16078A   26189.91327744  .00018419  00000+0  24088-3 0  9997
2 41884  34.9557 116.6186 0007211 337.4680  22.5727 15.57638566532143
CYGFM08                 
1 41888U 16078E   26189.94142726  .00021644  00000+0  24693-3 0  9995
2 41888  34.9421  96.2986 0007378   4.9476 355.1322 15.61190986532376
CYGFM07                 
1 41890U 16078G   26189.89917186  .00021780  00000+0  24760-3 0  9998
2 41890  34.9441  84.9024 0005600  16.9234 343.1678 15.61296732532398
